$$SOE
2460147.500000000, A.D. 2023-Jul-22 00:00:00.0000, -5.260443179854321E+09, -2.997522381987513E+09, 9.082607908493891E+08,
2460154.500000000, A.D. 2023-Jul-29 00:00:00.0000, -5.258900744970379E+09, -2.999954231871119E+09, 9.082292384066398E+08,
2460161.500000000, A.D. 2023-Aug-05 00:00:00.0000, -5.257357280651593E+09, -3.002385472019663E+09, 9.081974959529072E+08,
2460168.500000000, A.D. 2023-Aug-12 00:00:00.0000, -5.255812789447849E+09, -3.004816103839130E+09, 9.081655636315428E+08,
2460175.500000000, A.D. 2023-Aug-19 00:00:00.0000, -5.254267273604514E+09, -3.007246129224243E+09, 9.081334415557488E+08,
2460182.500000000, A.D. 2023-Aug-26 00:00:00.0000, -5.252720735061711E+09, -3.009675550468462E+09, 9.081011298146629E+08,
2460189.500000000, A.D. 2023-Sep-02 00:00:00.0000, -5.251173175476556E+09, -3.012104370245302E+09, 9.080686284747715E+08,
2460196.500000000, A.D. 2023-Sep-09 00:00:00.0000, -5.249624596231796E+09, -3.014532591702186E+09, 9.080359375699706E+08,
2460203.500000000, A.D. 2023-Sep-16 00:00:00.0000, -5.248074998262385E+09, -3.016960218724829E+09, 9.080030570601319E+08,
2460210.500000000, A.D. 2023-Sep-23 00:00:00.0000, -5.246524381283601E+09, -3.019387256085389E+09, 9.079699867434893E+08,
2460217.500000000, A.D. 2023-Sep-30 00:00:00.0000, -5.244972742760265E+09, -3.021813708283645E+09, 9.079367262513955E+08,
2460224.500000000, A.D. 2023-Oct-07 00:00:00.0000, -5.243420078970824E+09, -3.024239577624037E+09, 9.079032752971089E+08,
2460231.500000000, A.D. 2023-Oct-14 00:00:00.0000, -5.241866387126351E+09, -3.026664864841739E+09, 9.078696338126378E+08,
2460238.500000000, A.D. 2023-Oct-21 00:00:00.0000, -5.240311665315908E+09, -3.029089570675038E+09, 9.078358018086703E+08,
2460245.500000000, A.D. 2023-Oct-28 00:00:00.0000, -5.238755911702609E+09, -3.031513696123892E+09, 9.078017792731653E+08,
2460252.500000000, A.D. 2023-Nov-04 00:00:00.0000, -5.237199124220401E+09, -3.033937242165080E+09, 9.077675661605628E+08,
2460259.500000000, A.D. 2023-Nov-11 00:00:00.0000, -5.235641300594025E+09, -3.036360209523789E+09, 9.077331624065592E+08,
2460266.500000000, A.D. 2023-Nov-18 00:00:00.0000, -5.234082438462630E+09, -3.038782598565979E+09, 9.076985679433191E+08,
2460273.500000000, A.D. 2023-Nov-25 00:00:00.0000, -5.232522535534240E+09, -3.041204409288939E+09, 9.076637827105073E+08,
2460280.500000000, A.D. 2023-Dec-02 00:00:00.0000, -5.230961589742865E+09, -3.043625641421243E+09, 9.076288066588209E+08,
2460287.500000000, A.D. 2023-Dec-09 00:00:00.0000, -5.229399599330451E+09, -3.046046294691018E+09, 9.075936397341849E+08,
2460294.500000000, A.D. 2023-Dec-16 00:00:00.0000, -5.227836562566100E+09, -3.048466369249953E+09, 9.075582818172958E+08,
2460301.500000000, A.D. 2023-Dec-23 00:00:00.0000, -5.226272476754133E+09, -3.050885865565604E+09, 9.075227326426921E+08,
2460308.500000000, A.D. 2023-Dec-30 00:00:00.0000, -5.224707337871197E+09, -3.053304782732759E+09, 9.074869919059180E+08,
2460315.500000000, A.D. 2024-Jan-06 00:00:00.0000, -5.223141142604871E+09, -3.055723117564538E+09, 9.074510595282507E+08,
2460322.500000000, A.D. 2024-Jan-13 00:00:00.0000, -5.221573889621034E+09, -3.058140866270182E+09, 9.074149356400946E+08,
2460329.500000000, A.D. 2024-Jan-20 00:00:00.0000, -5.220005578836433E+09, -3.060558025634913E+09, 9.073786204226459E+08,
2460336.500000000, A.D. 2024-Jan-27 00:00:00.0000, -5.218436210725185E+09, -3.062974593049692E+09, 9.073421140469480E+08,
2460343.500000000, A.D. 2024-Feb-03 00:00:00.0000, -5.216865786087589E+09, -3.065390566339469E+09, 9.073054166718817E+08,
2460350.500000000, A.D. 2024-Feb-10 00:00:00.0000, -5.215294306003892E+09, -3.067805943681073E+09, 9.072685284516404E+08,
2460357.500000000, A.D. 2024-Feb-17 00:00:00.0000, -5.213721771834293E+09, -3.070220723602785E+09, 9.072314495404400E+08,
2460364.500000000, A.D. 2024-Feb-24 00:00:00.0000, -5.212148185229258E+09, -3.072634905050833E+09, 9.071941800922275E+08,
2460371.500000000, A.D. 2024-Mar-02 00:00:00.0000, -5.210573548120796E+09, -3.075048487555296E+09, 9.071567202499344E+08,
2460378.500000000, A.D. 2024-Mar-09 00:00:00.0000, -5.208997862555900E+09, -3.077461471558319E+09, 9.071190701063282E+08,
2460385.500000000, A.D. 2024-Mar-16 00:00:00.0000, -5.207421129976814E+09, -3.079873858707314E+09, 9.070812296162587E+08,
2460392.500000000, A.D. 2024-Mar-23 00:00:00.0000, -5.205843350051744E+09, -3.082285651004173E+09, 9.070431985604126E+08,
2460399.500000000, A.D. 2024-Mar-30 00:00:00.0000, -5.204264521297132E+09, -3.084696848837214E+09, 9.070049767639133E+08,
2460406.500000000, A.D. 2024-Apr-06 00:00:00.0000, -5.202684643235468E+09, -3.087107451263529E+09, 9.069665642710798E+08,
2460413.500000000, A.D. 2024-Apr-13 00:00:00.0000, -5.201103716537504E+09, -3.089517457705284E+09, 9.069279612189798E+08,
2460420.500000000, A.D. 2024-Apr-20 00:00:00.0000, -5.199521742101039E+09, -3.091926868383314E+09, 9.068891677158563E+08,
2460427.500000000, A.D. 2024-Apr-27 00:00:00.0000, -5.197938720583246E+09, -3.094335684049402E+09, 9.068501838177427E+08,
2460434.500000000, A.D. 2024-May-04 00:00:00.0000, -5.196354652298682E+09, -3.096743905720547E+09, 9.068110095377831E+08,
2460441.500000000, A.D. 2024-May-11 00:00:00.0000, -5.194769537244606E+09, -3.099151534516822E+09, 9.067716448581667E+08,
2460448.500000000, A.D. 2024-May-18 00:00:00.0000, -5.193183375171623E+09, -3.101558571580961E+09, 9.067320897390769E+08,
2460455.500000000, A.D. 2024-May-25 00:00:00.0000, -5.191596165674939E+09, -3.103965018086447E+09, 9.066923441219763E+08,
2460462.500000000, A.D. 2024-Jun-01 00:00:00.0000, -5.190007908246388E+09, -3.106370875391232E+09, 9.066524079172678E+08,
2460469.500000000, A.D. 2024-Jun-08 00:00:00.0000, -5.188418602040858E+09, -3.108776145359712E+09, 9.066122809521002E+08,
2460476.500000000, A.D. 2024-Jun-15 00:00:00.0000, -5.186828244957593E+09, -3.111180830307601E+09, 9.065719628864872E+08,
2460483.500000000, A.D. 2024-Jun-22 00:00:00.0000, -5.185236833041608E+09, -3.113584931394332E+09, 9.065314532862456E+08,
2460490.500000000, A.D. 2024-Jun-29 00:00:00.0000, -5.183644362326821E+09, -3.115988447283582E+09, 9.064907518988090E+08,
2460497.500000000, A.D. 2024-Jul-06 00:00:00.0000, -5.182050830475919E+09, -3.118391375542900E+09, 9.064498586875924E+08,
2460504.500000000, A.D. 2024-Jul-13 00:00:00.0000, -5.180456236267696E+09, -3.120793713958252E+09, 9.064087736770606E+08,
2460511.500000000, A.D. 2024-Jul-20 00:00:00.0000, -5.178860578917530E+09, -3.123195460614715E+09, 9.063674968845975E+08,
2460518.500000000, A.D. 2024-Jul-27 00:00:00.0000, -5.177263857886959E+09, -3.125596613702749E+09, 9.063260283209491E+08,
2460525.500000000, A.D. 2024-Aug-03 00:00:00.0000, -5.175666072909491E+09, -3.127997171424911E+09, 9.062843680034909E+08,
2460532.500000000, A.D. 2024-Aug-10 00:00:00.0000, -5.174067224066792E+09, -3.130397132007248E+09, 9.062425159666159E+08,
2460539.500000000, A.D. 2024-Aug-17 00:00:00.0000, -5.172467311867993E+09, -3.132796493793378E+09, 9.062004722664735E+08,
2460546.500000000, A.D. 2024-Aug-24 00:00:00.0000, -5.170866337304233E+09, -3.135195255443142E+09, 9.061582369754596E+08,
2460553.500000000, A.D. 2024-Aug-31 00:00:00.0000, -5.169264301762843E+09, -3.137593416296934E+09, 9.061158101505625E+08,
2460560.500000000, A.D. 2024-Sep-07 00:00:00.0000, -5.167661206435665E+09, -3.139990976779009E+09, 9.060731917521118E+08,
2460567.500000000, A.D. 2024-Sep-14 00:00:00.0000, -5.166057051136247E+09, -3.142387937843564E+09, 9.060303815862482E+08,
2460574.500000000, A.D. 2024-Sep-21 00:00:00.0000, -5.164451834554765E+09, -3.144784299050789E+09, 9.059873794906967E+08,
2460581.500000000, A.D. 2024-Sep-28 00:00:00.0000, -5.162845556438157E+09, -3.147180058500370E+09, 9.059441855446138E+08,
2460588.500000000, A.D. 2024-Oct-05 00:00:00.0000, -5.161238218025759E+09, -3.149575214620617E+09, 9.059007999659092E+08,
2460595.500000000, A.D. 2024-Oct-12 00:00:00.0000, -5.159629821101083E+09, -3.151969766833002E+09, 9.058572229725585E+08,
2460602.500000000, A.D. 2024-Oct-19 00:00:00.0000, -5.158020367410639E+09, -3.154363715362772E+09, 9.058134547463257E+08,
2460609.500000000, A.D. 2024-Oct-26 00:00:00.0000, -5.156409858482163E+09, -3.156757060996848E+09, 9.057694954363500E+08,
2460616.500000000, A.D. 2024-Nov-02 00:00:00.0000, -5.154798295584786E+09, -3.159149804937146E+09, 9.057253451668766E+08,
2460623.500000000, A.D. 2024-Nov-09 00:00:00.0000, -5.153185679734441E+09, -3.161541948728351E+09, 9.056810040419897E+08,
2460630.500000000, A.D. 2024-Nov-16 00:00:00.0000, -5.151572011718425E+09, -3.163933494259589E+09, 9.056364721450466E+08,
2460637.500000000, A.D. 2024-Nov-23 00:00:00.0000, -5.149957292092055E+09, -3.166324443889601E+09, 9.055917495244896E+08,
2460644.500000000, A.D. 2024-Nov-30 00:00:00.0000, -5.148341520938980E+09, -3.168714800737813E+09, 9.055468361435297E+08,
2460651.500000000, A.D. 2024-Dec-07 00:00:00.0000, -5.146724696975593E+09, -3.171104568720469E+09, 9.055017317897077E+08,
2460658.500000000, A.D. 2024-Dec-14 00:00:00.0000, -5.145106816688094E+09, -3.173493751107648E+09, 9.054564361076372E+08,
2460665.500000000, A.D. 2024-Dec-21 00:00:00.0000, -5.143487875820689E+09, -3.175882348841848E+09, 9.054109488663495E+08,
2460672.500000000, A.D. 2024-Dec-28 00:00:00.0000, -5.141867871242384E+09, -3.178270361585312E+09, 9.053652700379918E+08,
2460679.500000000, A.D. 2025-Jan-04 00:00:00.0000, -5.140246800595105E+09, -3.180657789119917E+09, 9.053193996440587E+08,
2460686.500000000, A.D. 2025-Jan-11 00:00:00.0000, -5.138624661544313E+09, -3.183044631439708E+09, 9.052733376720753E+08,
2460693.500000000, A.D. 2025-Jan-18 00:00:00.0000, -5.137001451548915E+09, -3.185430888454849E+09, 9.052270840719984E+08,
2460700.500000000, A.D. 2025-Jan-25 00:00:00.0000, -5.135377167906871E+09, -3.187816559781556E+09, 9.051806387714963E+08,
2460707.500000000, A.D. 2025-Feb-01 00:00:00.0000, -5.133751807886835E+09, -3.190201644648101E+09, 9.051340016905117E+08,
$$EOE